[Satellite]
VERSION=1.1
NAME=FLOCK 3P-29
NICKNAME=FLOCK 3P-29
TLE1=1 42045U 17008DB  17186.17109242  .00002491  00000-0  11021-3 0  9994
TLE2=2 42045  97.4952 247.4638 0009816 124.4740 235.7424 15.22589852 20458
